COSMOS 2251 DEB         
1 33901U 93036DE  26095.56697513  .00144084  00000+0  38787-2 0  9996
2 33901  73.7692 165.1078 0033028 289.0458  70.7169 15.36667395912487
COSMOS 2251 DEB         
1 33905U 93036DJ  26095.46056530  .00002068  00000+0  70970-3 0  9993
2 33905  73.8841 106.0881 0058236 327.8997 184.5666 14.35834895893192
COSMOS 2251 DEB         
1 33906U 93036DK  26095.43457843  .00008086  00000+0  17081-2 0  9992
2 33906  74.0271 105.0665 0031058 117.5146   0.5766 14.59181912896658
COSMOS 2251 DEB         
1 33907U 93036DL  26095.68775046  .00007806  00000+0  27024-2 0  9995
2 33907  74.0694 186.4049 0115109 215.9989 295.6210 14.32144356882103
COSMOS 2251 DEB         
1 33908U 93036DM  26095.76921396  .00005799  00000+0  27293-2 0  9993
2 33908  73.8396   3.2458 0217927   6.3697 354.0127 14.08446040870785
COSMOS 2251 DEB         
1 33911U 93036DQ  26095.75655637  .00013732  00000+0  18886-2 0  9992
2 33911  74.0891 299.2228 0013860 197.8199 290.1132 14.78268713903270
COSMOS 2251 DEB         
1 33912U 93036DR  26095.73891231  .00003076  00000+0  75578-3 0  9995
2 33912  74.0356 334.8313 0009590  28.3033  34.0326 14.52726593900889
COSMOS 2251 DEB         
1 33913U 93036DS  26095.65053685  .00002232  00000+0  58732-3 0  9996
2 33913  74.0353 330.1314 0046322  44.9005 346.4406 14.49042812901076
COSMOS 2251 DEB         
1 33914U 93036DT  26095.70552213  .00000806  00000+0  65520-3 0  9992
2 33914  74.0912 187.2407 0304560 263.7132 257.1207 13.72154094856443
COSMOS 2251 DEB         
1 33915U 93036DU  26095.51775455  .00001876  00000+0  62076-3 0  9998
2 33915  74.0441 185.5234 0106902 250.1332 128.5215 14.35446404893903
COSMOS 2251 DEB         
1 33916U 93036DV  26095.70637611  .00000373  00000+0  31861-3 0  9990
2 33916  74.0516 213.3236 0324432 359.7653 116.6322 13.68717611854507
COSMOS 2251 DEB         
1 33917U 93036DW  26095.81321707  .00000677  00000+0  54312-3 0  9992
2 33917  74.1068 295.3046 0331322   9.8568 350.8836 13.69715950852958
COSMOS 2251 DEB         
1 33920U 93036DZ  26095.36559000  .00009286  00000+0  19152-2 0  9992
2 33920  74.0587  82.1639 0030371  61.8372 298.5856 14.60256304897727
COSMOS 2251 DEB         
1 33922U 93036EB  26095.81534150  .00001689  00000+0  44247-3 0  9996
2 33922  74.0455 293.7904 0021938  14.7353   2.5126 14.49937382902317
COSMOS 2251 DEB         
1 33924U 93036ED  26095.40554740  .00000493  00000+0  48512-3 0  9991
2 33924  73.9104  87.4778 0400727 102.3808 262.2445 13.50403280842735
COSMOS 2251 DEB         
1 33928U 93036EH  26095.66870132  .00001400  00000+0  37875-3 0  9998
2 33928  73.9258 198.0109 0059344 108.6969 252.0644 14.47693474902938
