[{"OBJECT_NAME":"COSMOS 2251 DEB","OBJECT_ID":"1993-036DE","EPOCH":"2026-04-05T13:36:26.651232","MEAN_MOTION":15.36667395,"ECCENTRICITY":0.0033028,"INCLINATION":73.7692,"RA_OF_ASC_NODE":165.1078,"ARG_OF_PERICENTER":289.0458,"MEAN_ANOMALY":70.7169,"EPHEMERIS_TYPE":0,"CLASSIFICATION_TYPE":"U","NORAD_CAT_ID":33901,"ELEMENT_SET_NO":999,"REV_AT_EPOCH":91248,"BSTAR":0.0038787,"MEAN_MOTION_DOT":0.00144084,"MEAN_MOTION_DDOT":0},{"OBJECT_NAME":"COSMOS 2251 DEB","OBJECT_ID":"1993-036DJ","EPOCH":"2026-04-05T11:03:12.841920","MEAN_MOTION":14.35834895,"ECCENTRICITY":0.0058236,"INCLINATION":73.8841,"RA_OF_ASC_NODE":106.0881,"ARG_OF_PERICENTER":327.8997,"MEAN_ANOMALY":184.5666,"EPHEMERIS_TYPE":0,"CLASSIFICATION_TYPE":"U","NORAD_CAT_ID":33905,"ELEMENT_SET_NO":999,"REV_AT_EPOCH":89319,"BSTAR":0.0007097,"MEAN_MOTION_DOT":2.068e-5,"MEAN_MOTION_DDOT":0},{"OBJECT_NAME":"COSMOS 2251 DEB","OBJECT_ID":"1993-036DK","EPOCH":"2026-04-05T10:25:47.576352","MEAN_MOTION":14.59181912,"ECCENTRICITY":0.00310588,"INCLINATION":74.0271,"RA_OF_ASC_NODE":105.0665,"ARG_OF_PERICENTER":117.5146,"MEAN_ANOMALY":0.5766,"EPHEMERIS_TYPE":0,"CLASSIFICATION_TYPE":"U","NORAD_CAT_ID":33906,"ELEMENT_SET_NO":999,"REV_AT_EPOCH":89665,"BSTAR":0.0017081326,"MEAN_MOTION_DOT":8.086e-5,"MEAN_MOTION_DDOT":0},{"OBJECT_NAME":"COSMOS 2251 DEB","OBJECT_ID":"1993-036DL","EPOCH":"2026-04-05T16:30:21.639744","MEAN_MOTION":14.32144356,"ECCENTRICITY":0.0115109,"INCLINATION":74.0694,"RA_OF_ASC_NODE":186.4049,"ARG_OF_PERICENTER":215.9989,"MEAN_ANOMALY":295.621,"EPHEMERIS_TYPE":0,"CLASSIFICATION_TYPE":"U","NORAD_CAT_ID":33907,"ELEMENT_SET_NO":999,"REV_AT_EPOCH":88210,"BSTAR":0.0027024,"MEAN_MOTION_DOT":7.806e-5,"MEAN_MOTION_DDOT":0},{"OBJECT_NAME":"COSMOS 2251 DEB","OBJECT_ID":"1993-036DM","EPOCH":"2026-04-05T18:27:40.086144","MEAN_MOTION":14.0844604,"ECCENTRICITY":0.0217927,"INCLINATION":73.8396,"RA_OF_ASC_NODE":3.2458,"ARG_OF_PERICENTER":6.3697,"MEAN_ANOMALY":354.0127,"EPHEMERIS_TYPE":0,"CLASSIFICATION_TYPE":"U","NORAD_CAT_ID":33908,"ELEMENT_SET_NO":999,"REV_AT_EPOCH":87078,"BSTAR":0.0027293,"MEAN_MOTION_DOT":5.799e-5,"MEAN_MOTION_DDOT":0},{"OBJECT_NAME":"COSMOS 2251 DEB","OBJECT_ID":"1993-036DQ","EPOCH":"2026-04-05T18:09:26.470368","MEAN_MOTION":14.78268713,"ECCENTRICITY":0.001386,"INCLINATION":74.0891,"RA_OF_ASC_NODE":299.2228,"ARG_OF_PERICENTER":197.8199,"MEAN_ANOMALY":290.1132,"EPHEMERIS_TYPE":0,"CLASSIFICATION_TYPE":"U","NORAD_CAT_ID":33911,"ELEMENT_SET_NO":999,"REV_AT_EPOCH":90327,"BSTAR":0.0018886,"MEAN_MOTION_DOT":0.00013732,"MEAN_MOTION_DDOT":0},{"OBJECT_NAME":"COSMOS 2251 DEB","OBJECT_ID":"1993-036DR","EPOCH":"2026-04-05T17:44:02.023584","MEAN_MOTION":14.52726593,"ECCENTRICITY":0.000959,"INCLINATION":74.0356,"RA_OF_ASC_NODE":334.8313,"ARG_OF_PERICENTER":28.3033,"MEAN_ANOMALY":34.0326,"EPHEMERIS_TYPE":0,"CLASSIFICATION_TYPE":"U","NORAD_CAT_ID":33912,"ELEMENT_SET_NO":999,"REV_AT_EPOCH":90088,"BSTAR":0.00075578,"MEAN_MOTION_DOT":3.076e-5,"MEAN_MOTION_DDOT":0},{"OBJECT_NAME":"COSMOS 2251 DEB","OBJECT_ID":"1993-036DS","EPOCH":"2026-04-05T15:36:46.383840","MEAN_MOTION":14.49042812,"ECCENTRICITY":0.0046322,"INCLINATION":74.0353,"RA_OF_ASC_NODE":330.1314,"ARG_OF_PERICENTER":44.9005,"MEAN_ANOMALY":346.4406,"EPHEMERIS_TYPE":0,"CLASSIFICATION_TYPE":"U","NORAD_CAT_ID":33913,"ELEMENT_SET_NO":999,"REV_AT_EPOCH":90107,"BSTAR":0.00058732,"MEAN_MOTION_DOT":2.232e-5,"MEAN_MOTION_DDOT":0},{"OBJECT_NAME":"COSMOS 2251 DEB","OBJECT_ID":"1993-036DT","EPOCH":"2026-04-05T16:55:57.112032","MEAN_MOTION":13.72154094,"ECCENTRICITY":0.030456,"INCLINATION":74.0912,"RA_OF_ASC_NODE":187.2407,"ARG_OF_PERICENTER":263.7132,"MEAN_ANOMALY":257.1207,"EPHEMERIS_TYPE":0,"CLASSIFICATION_TYPE":"U","NORAD_CAT_ID":33914,"ELEMENT_SET_NO":999,"REV_AT_EPOCH":85644,"BSTAR":0.0006552,"MEAN_MOTION_DOT":8.06e-6,"MEAN_MOTION_DDOT":0},{"OBJECT_NAME":"COSMOS 2251 DEB","OBJECT_ID":"1993-036DU","EPOCH":"2026-04-05T12:25:33.993120","MEAN_MOTION":14.35446404,"ECCENTRICITY":0.01069026,"INCLINATION":74.0441,"RA_OF_ASC_NODE":185.5234,"ARG_OF_PERICENTER":250.1332,"MEAN_ANOMALY":128.5215,"EPHEMERIS_TYPE":0,"CLASSIFICATION_TYPE":"U","NORAD_CAT_ID":33915,"ELEMENT_SET_NO":999,"REV_AT_EPOCH":89390,"BSTAR":0.00062075652,"MEAN_MOTION_DOT":1.876e-5,"MEAN_MOTION_DDOT":0},{"OBJECT_NAME":"COSMOS 2251 DEB","OBJECT_ID":"1993-036DV","EPOCH":"2026-04-05T16:57:10.895904","MEAN_MOTION":13.68717611,"ECCENTRICITY":0.0324432,"INCLINATION":74.0516,"RA_OF_ASC_NODE":213.3236,"ARG_OF_PERICENTER":359.7653,"MEAN_ANOMALY":116.6322,"EPHEMERIS_TYPE":0,"CLASSIFICATION_TYPE":"U","NORAD_CAT_ID":33916,"ELEMENT_SET_NO":999,"REV_AT_EPOCH":85450,"BSTAR":0.00031861,"MEAN_MOTION_DOT":3.73e-6,"MEAN_MOTION_DDOT":0},{"OBJECT_NAME":"COSMOS 2251 DEB","OBJECT_ID":"1993-036DW","EPOCH":"2026-04-05T19:31:01.954848","MEAN_MOTION":13.6971595,"ECCENTRICITY":0.0331322,"INCLINATION":74.1068,"RA_OF_ASC_NODE":295.3046,"ARG_OF_PERICENTER":9.8568,"MEAN_ANOMALY":350.8836,"EPHEMERIS_TYPE":0,"CLASSIFICATION_TYPE":"U","NORAD_CAT_ID":33917,"ELEMENT_SET_NO":999,"REV_AT_EPOCH":85295,"BSTAR":0.00054312,"MEAN_MOTION_DOT":6.77e-6,"MEAN_MOTION_DDOT":0},{"OBJECT_NAME":"COSMOS 2251 DEB","OBJECT_ID":"1993-036DZ","EPOCH":"2026-04-05T08:46:26.976000","MEAN_MOTION":14.60256304,"ECCENTRICITY":0.00303711,"INCLINATION":74.0587,"RA_OF_ASC_NODE":82.1639,"ARG_OF_PERICENTER":61.8372,"MEAN_ANOMALY":298.5856,"EPHEMERIS_TYPE":0,"CLASSIFICATION_TYPE":"U","NORAD_CAT_ID":33920,"ELEMENT_SET_NO":999,"REV_AT_EPOCH":89772,"BSTAR":0.0019152088,"MEAN_MOTION_DOT":9.286e-5,"MEAN_MOTION_DDOT":0},{"OBJECT_NAME":"COSMOS 2251 DEB","OBJECT_ID":"1993-036EB","EPOCH":"2026-04-05T19:34:05.505600","MEAN_MOTION":14.49937382,"ECCENTRICITY":0.0021938,"INCLINATION":74.0455,"RA_OF_ASC_NODE":293.7904,"ARG_OF_PERICENTER":14.7353,"MEAN_ANOMALY":2.5126,"EPHEMERIS_TYPE":0,"CLASSIFICATION_TYPE":"U","NORAD_CAT_ID":33922,"ELEMENT_SET_NO":999,"REV_AT_EPOCH":90231,"BSTAR":0.00044247,"MEAN_MOTION_DOT":1.689e-5,"MEAN_MOTION_DDOT":0},{"OBJECT_NAME":"COSMOS 2251 DEB","OBJECT_ID":"1993-036ED","EPOCH":"2026-04-05T09:43:59.295360","MEAN_MOTION":13.5040328,"ECCENTRICITY":0.04007272,"INCLINATION":73.9104,"RA_OF_ASC_NODE":87.4778,"ARG_OF_PERICENTER":102.3808,"MEAN_ANOMALY":262.2445,"EPHEMERIS_TYPE":0,"CLASSIFICATION_TYPE":"U","NORAD_CAT_ID":33924,"ELEMENT_SET_NO":999,"REV_AT_EPOCH":84273,"BSTAR":0.00048511749,"MEAN_MOTION_DOT":4.93e-6,"MEAN_MOTION_DDOT":0},{"OBJECT_NAME":"COSMOS 2251 DEB","OBJECT_ID":"1993-036EH","EPOCH":"2026-04-05T16:02:55.794048","MEAN_MOTION":14.47693474,"ECCENTRICITY":0.0059344,"INCLINATION":73.9258,"RA_OF_ASC_NODE":198.0109,"ARG_OF_PERICENTER":108.6969,"MEAN_ANOMALY":252.0644,"EPHEMERIS_TYPE":0,"CLASSIFICATION_TYPE":"U","NORAD_CAT_ID":33928,"ELEMENT_SET_NO":999,"REV_AT_EPOCH":90293,"BSTAR":0.00037875,"MEAN_MOTION_DOT":1.4e-5,"MEAN_MOTION_DDOT":0}]
